[Satellite]
VERSION=1.1
NAME=HOT BIRD 9
NICKNAME=HOT BIRD 9
TLE1=1 33459U 08065A   15053.79574863  .00000061  00000-0  00000+0 0  9992
TLE2=2 33459   0.0435 326.6026 0003328  66.4055  58.7675  1.00271034 22814
